KUIPER-00008            
1 63724U 25088A   25291.93598192  .00011572  00000+0  95072-3 0  9991
2 63724  51.8922  13.2933 0011203 346.4369  13.6299 14.99521427 26792
KUIPER-00009            
1 63725U 25088B   25291.63198881  .00004214  00000+0  57908-3 0  9991
2 63725  51.9031  14.7802 0012527 352.0054   8.0707 14.80077597 26741
KUIPER-00010            
1 63726U 25088C   25292.00003472  .00005976  00000+0  64551-3 0  9993
2 63726  51.8941 349.8750 0012718  42.1463   8.7304 14.89475705  5466
KUIPER-00011            
1 63727U 25088D   25291.92065594  .00000604  00000+0  10851-3 0  9994
2 63727  51.9030 357.5642 0013346  10.8923 349.2326 14.79938241 26765
KUIPER-00012            
1 63728U 25088E   25291.87152993  .00005349  00000+0  25074-3 0  9993
2 63728  51.8713 348.1442 0010870   3.4528 356.6525 15.21206848 26846
KUIPER-00013            
1 63729U 25088F   25291.49671773  .00007051  00000+0  95425-3 0  9993
2 63729  51.9031  16.8538 0007583 278.5647  81.4456 14.79866891 26512
KUIPER-00014            
1 63730U 25088G   25291.62993827  .00005693  00000+0  77510-3 0  9992
2 63730  51.9038  17.2309 0008129 345.7411  14.3320 14.79926914 26333
KUIPER-00015            
1 63731U 25088H   25291.53344568  .00004732  00000+0  62674-3 0  9993
2 63731  51.9002  29.3417 0009670 329.5469  30.4932 14.81428803 26610
